CS1                     
1 49261U 21088B   26068.75173904  .00015722  00000+0  51176-3 0  9998
2 49261  97.3882 132.1684 0014129  78.0335 282.2490 15.31848439245182
STARLINK-32421          
1 61628U 24191H   26067.30702964 -.00001831  00000+0 -57062-4 0  9990
2 61628  42.9973 162.4259 0000402 213.4244 146.6582 15.27576324 77327
